OBJECT_NAME,OBJECT_ID,EPOCH,MEAN_MOTION,ECCENTRICITY,INCLINATION,RA_OF_ASC_NODE,ARG_OF_PERICENTER,MEAN_ANOMALY,EPHEMERIS_TYPE,CLASSIFICATION_TYPE,NORAD_CAT_ID,ELEMENT_SET_NO,REV_AT_EPOCH,BSTAR,MEAN_MOTION_DOT,MEAN_MOTION_DDOT
TIANMU-1 20,2023-208B,2026-07-20T14:44:18.214944,15.33215015,.00068516,97.4468,318.7707,191.9711,168.1370,0,U,58661,999,14254,.15954109E-3,.5042E-4,0
TIANMU-1 21,2023-208C,2026-07-20T14:47:31.247232,15.35612121,.00072416,97.4529,321.6008,184.5460,175.5719,0,U,58662,999,14269,.17701026E-3,.6049E-4,0
TIANMU-1 22,2023-208D,2026-07-20T14:17:47.171040,15.31472335,.00032724,97.4521,317.9890,196.2163,163.8974,0,U,58663,999,14244,.15314403E-3,.4575E-4,0
TIANMU-1 15,2024-004A,2026-07-20T14:04:33.062592,15.26946470,.00065074,97.4676,27.7779,206.6767,153.4138,0,U,58700,999,14087,.12469022E-3,.3225E-4,0
TIANMU-1 16,2024-004B,2026-07-20T15:23:13.002144,15.27049787,.00047903,97.4625,27.0462,221.1219,138.9659,0,U,58701,999,14088,.11791907E-3,.3055E-4,0
TIANMU-1 17,2024-004C,2026-07-20T15:02:19.364928,15.27047493,.00042173,97.4652,27.5288,226.3501,133.7388,0,U,58702,999,14087,.12166148E-3,.3154E-4,0
TIANMU-1 18,2024-004D,2026-07-20T14:28:19.601760,15.26962023,.00042436,97.4668,27.7684,201.8777,158.2281,0,U,58703,999,14087,.12288274E-3,.3178E-4,0
INSAT-3DS,2024-033A,2026-07-20T14:54:41.999616,1.00270786,.00012893,0.0765,263.8272,220.8921,119.3999,0,U,58990,999,4740,0,-.156E-5,0
METEOR-M2 4,2024-039A,2026-07-20T14:18:01.596384,14.22432473,.00082375,98.7029,160.4775,75.4155,284.7936,0,U,59051,999,12401,.18353808E-4,-.3E-7,0
GOES 19,2024-119A,2026-07-20T11:03:40.228992,1.00272602,.00002879,0.0196,138.2572,48.2970,202.4001,0,U,60133,999,729,0,-.25E-5,0
MTG-S1,2025-143A,2026-07-20T07:59:42.669600,1.00275165,.00032472,0.5815,346.3135,258.0118,173.3546,0,U,64723,999,375,0,-.8E-7,0
METOP-SGA1,2025-172A,2026-07-14T18:20:46.629312,14.19819127,.00070989,98.6631,254.9090,333.3306,26.7504,0,U,65159,999,4770,.2916334E-4,.19E-6,0
FENGYUN 3H,2025-219A,2026-07-20T13:59:23.723808,14.19925256,.00010318,98.6770,141.7038,62.1335,297.9946,0,U,65815,999,4212,.26036329E-4,.12E-6,0
