TIANMU-1 20             
1 58661U 23208B   26201.61409971  .00005042  00000+0  15954-3 0  9996
2 58661  97.4468 318.7707 0006851 191.9711 168.1370 15.33215015142546
TIANMU-1 21             
1 58662U 23208C   26201.61633388  .00006049  00000+0  17701-3 0  9998
2 58662  97.4529 321.6008 0007241 184.5460 175.5719 15.35612121142691
TIANMU-1 22             
1 58663U 23208D   26201.59568485  .00004575  00000+0  15314-3 0  9991
2 58663  97.4521 317.9890 0003272 196.2163 163.8974 15.31472335142444
TIANMU-1 15             
1 58700U 24004A   26201.58649378  .00003225  00000+0  12469-3 0  9997
2 58700  97.4676  27.7779 0006507 206.6767 153.4138 15.26946470140871
TIANMU-1 16             
1 58701U 24004B   26201.64112271  .00003055  00000+0  11792-3 0  9991
2 58701  97.4625  27.0462 0004790 221.1219 138.9659 15.27049787140887
TIANMU-1 17             
1 58702U 24004C   26201.62661302  .00003154  00000+0  12166-3 0  9990
2 58702  97.4652  27.5288 0004217 226.3501 133.7388 15.27047493140877
TIANMU-1 18             
1 58703U 24004D   26201.60300465  .00003178  00000+0  12288-3 0  9990
2 58703  97.4668  27.7684 0004243 201.8777 158.2281 15.26962023140877
INSAT-3DS               
1 58990U 24033A   26201.62131944 -.00000156  00000+0  00000+0 0  9995
2 58990   0.0765 263.8272 0001289 220.8921 119.3999  1.00270786 47402
METEOR-M2 4             
1 59051U 24039A   26201.59585181 -.00000003  00000+0  18354-4 0  9999
2 59051  98.7029 160.4775 0008237  75.4155 284.7936 14.22432473124013
GOES 19                 
1 60133U 24119A   26201.46088228 -.00000250  00000+0  00000+0 0  9995
2 60133   0.0196 138.2572 0000287  48.2970 202.4001  1.00272602  7293
MTG-S1                  
1 64723U 25143A   26201.33313275 -.00000008  00000+0  00000+0 0  9992
2 64723   0.5815 346.3135 0003247 258.0118 173.3546  1.00275165  3750
METOP-SGA1              
1 65159U 25172A   26195.76442858  .00000019  00000+0  29163-4 0  9994
2 65159  98.6631 254.9090 0007098 333.3306  26.7504 14.19819127 47700
FENGYUN 3H              
1 65815U 25219A   26201.58291347  .00000012  00000+0  26036-4 0  9997
2 65815  98.6770 141.7038 0001031  62.1335 297.9946 14.19925256 42122
